{"Zipcode":76166,"City":"CINGULAR WIRELESS"}
{"Zipcode":76177,"City":"FORT WORTH"}
{"Zipcode":76177,"City":"FT WORTH"}
{"Zipcode":85209,"City":"MESA"}
{"Zipcode":85210,"City":"MESA"}
{"Zipcode":32046,"City":"HILLIARD"}
{"Zipcode":34445,"City":"HOLDER"}
{"Zipcode":32564,"City":"HOLT"}
{"Zipcode":34487,"City":"HOMOSASSA"}
{"Zipcode":36275,"City":"SPRING GARDEN"}
{"Zipcode":35146,"City":"SPRINGVILLE"}
{"Zipcode":35585,"City":"SPRUCE PINE"}
{"Zipcode":27007,"City":"ASH HILL"}
{"Zipcode":27203,"City":"ASHEBORO"}
{"Zipcode":27204,"City":"ASHEBORO"}
{"Zipcode":76166,"City":"CINGULAR WIRELESS"}
{"Zipcode":76177,"City":"FORT WORTH"}
{"Zipcode":76177,"City":"FT WORTH"}
{"Zipcode":85209,"City":"MESA"}
{"Zipcode":85210,"City":"MESA"}
{"Zipcode":32046,"City":"HILLIARD"}
{"Zipcode":34445,"City":"HOLDER"}
{"Zipcode":32564,"City":"HOLT"}
{"Zipcode":34487,"City":"HOMOSASSA"}
{"Zipcode":36275,"City":"SPRING GARDEN"}
{"Zipcode":35146,"City":"SPRINGVILLE"}
{"Zipcode":35585,"City":"SPRUCE PINE"}
{"Zipcode":27007,"City":"ASH HILL"}
{"Zipcode":27203,"City":"ASHEBORO"}
{"Zipcode":27204,"City":"ASHEBORO"}
{"Zipcode":36275,"City":"SPRING GARDEN"}
{"Zipcode":35146,"City":"SPRINGVILLE"}
{"Zipcode":35585,"City":"SPRUCE PINE"}
{"Zipcode":27007,"City":"ASH HILL"}
{"Zipcode":27203,"City":"ASHEBORO"}
{"Zipcode":27204,"City":"ASHEBORO"}
{"Zipcode":36275,"City":"SPRING GARDEN"}
{"Zipcode":35146,"City":"SPRINGVILLE"}
{"Zipcode":35585,"City":"SPRUCE PINE"}
{"Zipcode":27007,"City":"ASH HILL"}
{"Zipcode":27203,"City":"ASHEBORO"}
{"Zipcode":27204,"City":"ASHEBORO"}
